H1 CPF 01  gfz 2022 10 17 00  7901 terrasarx 
H2 0702601  6201 31698    2022 10 17 00 59 42 2022 10 22 00 00 42   120 1 1  0 0 0
H9
10 0 59873  22302.000000  0    1470990.612    808475.424   6670301.560
10 0 59873  22422.000000  0    2353211.988    716992.850   6423884.676
10 0 59873  22542.000000  0    3192525.567    597931.432   6064564.684
10 0 59873  22662.000000  0    3973809.641    454249.091   5598622.922
10 0 59873  22782.000000  0    4683000.699    289590.442   5034214.439
10 0 59873  22902.000000  0    5307352.048    108202.780   4381231.574
10 0 59873  23022.000000  0    5835671.609    -85163.078   3651136.113
10 0 59873  23142.000000  0    6258533.150   -285364.386   2856760.776
10 0 59873  23262.000000  0    6568455.043   -486989.188   2012082.614
10 0 59873  23382.000000  0    6760040.426   -684488.240   1131973.831
10 0 59873  23502.000000  0    6830078.658   -872311.216    231935.001
10 0 59873  23622.000000  0    6777603.946  -1045044.159   -672186.404
10 0 59873  23742.000000  0    6603906.462  -1197545.358  -1564484.775
10 0 59873  23862.000000  0    6312498.480  -1325075.216  -2429284.490
10 0 59873  23982.000000  0    5909035.635  -1423417.233  -3251421.925
10 0 59873  24102.000000  0    5401196.895  -1488987.078  -4016514.680
10 0 59873  24222.000000  0    4798526.675  -1518926.627  -4711212.993
10 0 59873  24342.000000  0    4112244.169  -1511181.449  -5323428.917
10 0 59873  24462.000000  0    3355023.988  -1464561.001  -5842539.854
10 0 59873  24582.000000  0    2540753.974  -1378779.481  -6259562.460
10 0 59873  24702.000000  0    1684277.048  -1254476.337  -6567297.033
10 0 59873  24822.000000  0     801119.870  -1093217.112  -6760441.247
10 0 59873  24942.000000  0     -92785.774   -897475.665  -6835671.853
10 0 59873  25062.000000  0    -981384.959   -670596.607  -6791695.223
10 0 59873  25182.000000  0   -1848781.105   -416739.403  -6629267.496
10 0 59873  25302.000000  0   -2679514.317   -140803.848  -6351182.257
10 0 59873  25422.000000  0   -3458830.354    151660.837  -5962226.915
10 0 59873  25542.000000  0   -4172939.317    454563.038  -5469110.270
10 0 59873  25662.000000  0   -4809260.872    761390.005  -4880357.297
10 0 59873  25782.000000  0   -5356650.256   1065341.263  -4206174.254
10 0 59873  25902.000000  0   -5805602.791   1359473.745  -3458282.593
10 0 59873  26022.000000  0   -6148429.603   1636853.995  -2649722.982
10 0 59873  26142.000000  0   -6379401.444   1890714.073  -1794632.802
10 0 59873  26262.000000  0   -6494856.993   2114608.355   -908000.256
10 0 59873  26382.000000  0   -6493271.478   2302566.948     -5398.119
10 0 59873  26502.000000  0   -6375282.248   2449241.143    897296.644
10 0 59873  26622.000000  0   -6143670.492   2550038.040   1784190.152
10 0 59873  26742.000000  0   -5803299.756   2601240.715   2639660.754
10 0 59873  26862.000000  0   -5361012.185   2600109.848   3448642.515
10 0 59873  26982.000000  0   -4825485.902   2544964.164   4196897.856
10 0 59873  27102.000000  0   -4207056.363   2435238.128   4871271.614
10 0 59873  27222.000000  0   -3517508.867   2271516.184   5459922.379
10 0 59873  27342.000000  0   -2769846.550   2055543.195   5952528.839
10 0 59873  27462.000000  0   -1978037.366   1790210.413   6340467.245
10 0 59873  27582.000000  0   -1156747.047   1479516.923   6616956.492
10 0 59873  27702.000000  0    -321064.125   1128508.213   6777169.190
10 0 59873  27822.000000  0     513777.085    743193.164   6818309.951
10 0 59873  27942.000000  0    1332673.234    330440.860   6739660.987
10 0 59873  28062.000000  0    2120923.783   -102141.183   6542593.806
10 0 59873  28182.000000  0    2864493.977   -546346.441   6230547.843
10 0 59873  28302.000000  0    3550265.903   -993523.974   5808974.982
10 0 59873  28422.000000  0    4166273.358  -1434745.546   5285249.738
10 0 59873  28542.000000  0    4701914.996  -1860983.305   4668545.813
10 0 59873  28662.000000  0    5148143.391  -2263293.600   3969681.706
10 0 59873  28782.000000  0    5497627.144  -2633004.387   3200934.993
10 0 59873  28902.000000  0    5744879.400  -2961901.678   2375826.462
10 0 59873  29022.000000  0    5886349.634  -3242410.124   1508880.548
10 0 59873  29142.000000  0    5920478.826  -3467764.501    615365.615
10 0 59873  29262.000000  0    5847713.520  -3632166.303   -288982.766
10 0 59873  29382.000000  0    5670480.183  -3730921.968  -1188247.242
10 0 59873  29502.000000  0    5393118.187  -3760558.295  -2066618.819
10 0 59873  29622.000000  0    5021774.694  -3718912.406  -2908681.815
10 0 59873  29742.000000  0    4564264.951  -3605195.539  -3699689.439
10 0 59873  29862.000000  0    4029901.187  -3420028.122  -4425823.777
10 0 59873  29982.000000  0    3429295.396  -3165446.191  -5074435.229
10 0 59873  30102.000000  0    2774141.259  -2844878.686  -5634256.579
10 0 59873  30222.000000  0    2076981.886  -2463098.835  -6095588.592
10 0 59873  30342.000000  0    1350968.253  -2026150.948  -6450458.209
10 0 59873  30462.000000  0     609610.524  -1541251.315  -6692746.812
10 0 59873  30582.000000  0    -133471.252  -1016667.225  -6818284.710
10 0 59873  30702.000000  0    -864792.528   -461577.140  -6824914.249
10 0 59873  30822.000000  0   -1571242.933    114086.561  -6712522.575
10 0 59873  30942.000000  0   -2240316.107    699811.055  -6483042.671
10 0 59873  31062.000000  0   -2860325.873   1284689.892  -6140423.473
10 0 59873  31182.000000  0   -3420606.872   1857620.981  -5690569.651
10 0 59873  31302.000000  0   -3911698.550   2407513.290  -5141251.357
10 0 59873  31422.000000  0   -4325509.280   2923499.901  -4501981.480
10 0 59873  31542.000000  0   -4655455.408   3395152.424  -3783860.670
10 0 59873  31662.000000  0   -4896572.731   3812692.827  -2999394.404
10 0 59873  31782.000000  0   -5045598.961   4167198.910  -2162281.793
10 0 59873  31902.000000  0   -5101023.442   4450797.203  -1287179.314
10 0 59873  32022.000000  0   -5063103.567   4656839.617   -389443.419
10 0 59873  32142.000000  0   -4933845.348   4780058.589    515143.913
10 0 59873  32262.000000  0   -4716948.100   4816695.939   1410660.761
10 0 59873  32382.000000  0   -4417714.451   4764600.537   2281335.299
10 0 59873  32502.000000  0   -4042926.761   4623293.793   3111832.680
10 0 59873  32622.000000  0   -3600694.577   4394001.002   3887532.156
10 0 59873  32742.000000  0   -3100277.957   4079647.941   4594789.152
10 0 59873  32862.000000  0   -2551890.769   3684823.421   5221177.919
10 0 59873  32982.000000  0   -1966487.891   3215708.053   5755709.440
10 0 59873  33102.000000  0   -1355542.250   2679971.832   6189020.663
10 0 59873  33222.000000  0    -730816.635   2086642.702   6513532.406
10 0 59873  33342.000000  0    -104137.004   1445950.369   6723574.384
10 0 59873  33462.000000  0     512830.988    769147.637   6815479.437
10 0 59873  33582.000000  0    1108798.685     68311.999   6787642.750
10 0 59873  33702.000000  0    1673059.712   -643868.880   6640548.439
10 0 59873  33822.000000  0    2195681.721  -1354326.395   6376762.293
10 0 59873  33942.000000  0    2667681.446  -2049849.835   6000890.379
10 0 59873  34062.000000  0    3081181.473  -2717332.608   5519504.218
10 0 59873  34182.000000  0    3429544.530  -3344020.757   4941031.385
10 0 59873  34302.000000  0    3707483.507  -3917759.903   4275614.061
10 0 59873  34422.000000  0    3911145.698  -4427235.748   3534935.685
10 0 59873  34542.000000  0    4038167.851  -4862202.976   2732017.710
10 0 59873  34662.000000  0    4087701.492  -5213697.180   1880990.062
10 0 59873  34782.000000  0    4060407.347  -5474224.156    996838.573
10 0 59873  34902.000000  0    3958418.193  -5637921.306     95134.558
10 0 59873  35022.000000  0    3785272.287  -5700687.519   -808246.288
10 0 59873  35142.000000  0    3545818.002  -5660279.321  -1697412.996
10 0 59873  35262.000000  0    3246091.183  -5516367.692  -2556747.159
10 0 59873  35382.000000  0    2893170.850  -5270557.066  -3371183.677
10 0 59873  35502.000000  0    2495014.903  -4926364.812  -4126479.092
10 0 59873  35622.000000  0    2060280.941  -4489162.754  -4809460.303
10 0 59873  35742.000000  0    1598138.057  -3966083.121  -5408249.511
10 0 59873  35862.000000  0    1118074.815  -3365892.484  -5912462.435
10 0 59873  35982.000000  0     629705.935  -2698837.626  -6313378.157
10 0 59873  36102.000000  0     142581.707  -1976465.822  -6604079.033
10 0 59873  36222.000000  0    -333995.283  -1211422.609  -6779559.123
10 0 59873  36342.000000  0    -791142.860   -417231.367  -6836801.355
10 0 59873  36462.000000  0   -1220560.164    391941.892  -6774823.194
10 0 59873  36582.000000  0   -1614674.936   1201534.745  -6594690.875
10 0 59873  36702.000000  0   -1966773.821   1996843.927  -6299502.929
10 0 59873  36822.000000  0   -2271114.780   2763285.651  -5894343.219
10 0 59873  36942.000000  0   -2523021.090   3486659.539  -5386203.310
10 0 59873  37062.000000  0   -2718954.159   4153410.805  -4783873.187
10 0 59873  37182.000000  0   -2856565.144   4750887.332  -4097800.486
10 0 59873  37302.000000  0   -2934722.522   5267585.027  -3339917.884
10 0 59873  37422.000000  0   -2953514.676   5693375.349  -2523443.227
10 0 59873  37542.000000  0   -2914228.862   6019713.569  -1662655.047
10 0 59873  37662.000000  0   -2819304.641   6239820.303   -772642.624
10 0 59873  37782.000000  0   -2672263.118   6348828.739    130960.918
10 0 59873  37902.000000  0   -2477615.538   6343899.296   1032258.228
10 0 59873  38022.000000  0   -2240748.901   6224292.750   1915379.136
10 0 59873  38142.000000  0   -1967792.347   5991397.379   2764770.192
10 0 59873  38262.000000  0   -1665470.143   5648713.734   3565475.990
10 0 59873  38382.000000  0   -1340944.889   5201797.959   4303407.799
10 0 59873  38502.000000  0   -1001654.581   4658164.576   4965595.256
10 0 59873  38622.000000  0    -655145.517   4027150.405   5540414.921
10 0 59873  38742.000000  0    -308908.040   3319745.653   6017790.845
99
